0 FENGYUN 1C DEB
1 30981U 99025BBX 13283.24037373  .00002433  00000-0  16318-2 0  5407
2 30981 098.4550 087.3657 0153464 114.0918 247.6425 13.96062478336005
0 FENGYUN 1C DEB
1 30981U 99025BBX 13285.24712999  .00002470  00000-0  16562-2 0  5416
2 30981 098.4546 089.2091 0153129 108.4201 253.3682 13.96073280336285
0 FENGYUN 1C DEB
1 30981U 99025BBX 13285.67714736  .00002539  00000-0  17052-2 0  5426
2 30981 098.4516 089.5992 0151464 106.8789 254.9352 13.96077273336342
0 FENGYUN 1C DEB
1 30981U 99025BBX 13287.25386250  .00002602  00000-0  17440-2 0  5431
2 30981 098.4543 091.0520 0152651 102.7778 259.0769 13.96086858336560
0 FENGYUN 1C DEB
1 30981U 99025BBX 13289.26057485  .00002575  00000-0  17277-2 0  5447
2 30981 098.4531 092.8928 0151975 096.9789 264.8509 13.96096722336840
0 FENGYUN 1C DEB
1 30981U 99025BBX 13289.69058715  .00002658  00000-0  17847-2 0  5457
2 30981 098.4490 093.2873 0150976 095.1834 266.7032 13.96101505336905
0 FENGYUN 1C DEB
1 30981U 99025BBX 13290.26392070  .00002764  00000-0  18517-2 0  5461
2 30981 098.4523 093.8169 0152193 093.9741 267.9542 13.96107649336984
0 FENGYUN 1C DEB
1 30981U 99025BBX 13290.69389740  .00003650  00000-0  24097-2 0  5474
2 30981 098.4563 094.2169 0153386 094.1252 267.7922 13.96121018310335
0 FENGYUN 1C DEB
1 30981U 99025BBX 13291.26725025  .00002817  00000-0  18881-2 0  5476
2 30981 098.4494 094.7342 0151443 090.7966 271.0902 13.96114991337126
0 FENGYUN 1C DEB
1 30981U 99025BBX 13293.27390626  .00002892  00000-0  19389-2 0  5482
2 30981 098.4466 096.5714 0150744 084.7609 277.1010 13.96129060337409
0 FENGYUN 1C DEB
1 30981U 99025BBX 13295.28054683  .00002922  00000-0  19592-2 0  5496
2 30981 098.4453 098.4106 0150449 078.9017 282.9290 13.96141923337687
